[
    {
        "Altitude(m)": 714804.8409695198,
        "Argument of Periapsis(deg)": 0.010251109067964361,
        "Eccentricity": 0.0,
        "Inclination(deg)": 45.0,
        "Latitude(deg)": -37.70144391023683,
        "Longitude(deg)": -95.44915787831704,
        "Mean Anomaly(deg)": -120.5292050172672,
        "RAAN(deg)": 134.9903232526876,
        "Satellite Name": "Constellation 1 608",
        "Satellite Number": 608,
        "Semi-Major Axis(m)": 7083131.272910544,
        "Time(s)": 171
    },
    {
        "Altitude(m)": 714816.134249152,
        "Argument of Periapsis(deg)": 0.010311057074209765,
        "Eccentricity": 0.0,
        "Inclination(deg)": 45.0,
        "Latitude(deg)": -37.72889685289514,
        "Longitude(deg)": -95.38511240186638,
        "Mean Anomaly(deg)": -120.4685038770174,
        "RAAN(deg)": 134.99026666352205,
        "Satellite Name": "Constellation 1 608",
        "Satellite Number": 608,
        "Semi-Major Axis(m)": 7083131.272910544,
        "Time(s)": 172
    },
    {
        "Altitude(m)": 714827.4123576444,
        "Argument of Periapsis(deg)": 0.010371005080455171,
        "Eccentricity": 0.0,
        "Inclination(deg)": 45.0,
        "Latitude(deg)": -37.75631020427587,
        "Longitude(deg)": -95.32101676877866,
        "Mean Anomaly(deg)": -120.40780273676742,
        "RAAN(deg)": 134.99021007435647,
        "Satellite Name": "Constellation 1 608",
        "Satellite Number": 608,
        "Semi-Major Axis(m)": 7083131.272910544,
        "Time(s)": 173
    },
    {
        "Altitude(m)": 714838.6752541063,
        "Argument of Periapsis(deg)": 0.010430953086700577,
        "Eccentricity": 0.0,
        "Inclination(deg)": 45.0,
        "Latitude(deg)": -37.78368389718351,
        "Longitude(deg)": -95.25687096478686,
        "Mean Anomaly(deg)": -120.34710159651746,
        "RAAN(deg)": 134.99015348519092,
        "Satellite Name": "Constellation 1 608",
        "Satellite Number": 608,
        "Semi-Major Axis(m)": 7083131.272910544,
        "Time(s)": 174
    },
    {
        "Altitude(m)": 714849.9228977084,
        "Argument of Periapsis(deg)": 0.010490901092945983,
        "Eccentricity": 0.0,
        "Inclination(deg)": 45.0,
        "Latitude(deg)": -37.811017864385896,
        "Longitude(deg)": -95.19267497594937,
        "Mean Anomaly(deg)": -120.28640045626766,
        "RAAN(deg)": 134.99009689602534,
        "Satellite Name": "Constellation 1 608",
        "Satellite Number": 608,
        "Semi-Major Axis(m)": 7083131.272910544,
        "Time(s)": 175
    },
    {
        "Altitude(m)": 714861.1552476647,
        "Argument of Periapsis(deg)": 0.010550849099191389,
        "Eccentricity": 0.0,
        "Inclination(deg)": 45.0,
        "Latitude(deg)": -37.83831203861458,
        "Longitude(deg)": -95.12842878865118,
        "Mean Anomaly(deg)": -120.22569931601774,
        "RAAN(deg)": 134.99004030685975,
        "Satellite Name": "Constellation 1 608",
        "Satellite Number": 608,
        "Semi-Major Axis(m)": 7083131.272910544,
        "Time(s)": 176
    },
    {
        "Altitude(m)": 714872.3722632455,
        "Argument of Periapsis(deg)": 0.010610797105436795,
        "Eccentricity": 0.0,
        "Inclination(deg)": 45.0,
        "Latitude(deg)": -37.865566352565104,
        "Longitude(deg)": -95.06413238960604,
        "Mean Anomaly(deg)": -120.16499817576785,
        "RAAN(deg)": 134.9899837176942,
        "Satellite Name": "Constellation 1 608",
        "Satellite Number": 608,
        "Semi-Major Axis(m)": 7083131.272910544,
        "Time(s)": 177
    },
    {
        "Altitude(m)": 714883.5739037697,
        "Argument of Periapsis(deg)": 0.0106707451116822,
        "Eccentricity": 0.0,
        "Inclination(deg)": 45.0,
        "Latitude(deg)": -37.892780738897386,
        "Longitude(deg)": -94.99978593395448,
        "Mean Anomaly(deg)": -120.10429703551792,
        "RAAN(deg)": 134.98992712852862,
        "Satellite Name": "Constellation 1 608",
        "Satellite Number": 608,
        "Semi-Major Axis(m)": 7083131.272910544,
        "Time(s)": 178
    },
    {
        "Altitude(m)": 714894.7601286115,
        "Argument of Periapsis(deg)": 0.010730693117927606,
        "Eccentricity": 0.0,
        "Inclination(deg)": 45.0,
        "Latitude(deg)": -37.91995513023636,
        "Longitude(deg)": -94.93538907287652,
        "Mean Anomaly(deg)": -120.04359589526808,
        "RAAN(deg)": 134.98987053936307,
        "Satellite Name": "Constellation 1 608",
        "Satellite Number": 608,
        "Semi-Major Axis(m)": 7083131.272910544,
        "Time(s)": 179
    },
    {
        "Altitude(m)": 714905.9308971978,
        "Argument of Periapsis(deg)": 0.01079064112417301,
        "Eccentricity": 0.0,
        "Inclination(deg)": 45.0,
        "Latitude(deg)": -37.947089459172,
        "Longitude(deg)": -94.87094196217663,
        "Mean Anomaly(deg)": -119.98289475501815,
        "RAAN(deg)": 134.98981395019746,
        "Satellite Name": "Constellation 1 608",
        "Satellite Number": 608,
        "Semi-Major Axis(m)": 7083131.272910544,
        "Time(s)": 180
    },
    {
        "Altitude(m)": 714917.0861690036,
        "Argument of Periapsis(deg)": 0.010850589130418416,
        "Eccentricity": 0.0,
        "Inclination(deg)": 45.0,
        "Latitude(deg)": -37.97418365826002,
        "Longitude(deg)": -94.80644458989586,
        "Mean Anomaly(deg)": -119.92219361476826,
        "RAAN(deg)": 134.9897573610319,
        "Satellite Name": "Constellation 1 608",
        "Satellite Number": 608,
        "Semi-Major Axis(m)": 7083131.272910544,
        "Time(s)": 181
    },
    {
        "Altitude(m)": 714928.2259035608,
        "Argument of Periapsis(deg)": 0.01091053713666382,
        "Eccentricity": 0.0,
        "Inclination(deg)": 45.0,
        "Latitude(deg)": -38.00123766002211,
        "Longitude(deg)": -94.74189694441093,
        "Mean Anomaly(deg)": -119.86149247451834,
        "RAAN(deg)": 134.98970077186635,
        "Satellite Name": "Constellation 1 608",
        "Satellite Number": 608,
        "Semi-Major Axis(m)": 7083131.272910544,
        "Time(s)": 182
    },
    {
        "Altitude(m)": 714939.3500604528,
        "Argument of Periapsis(deg)": 0.010970485142909228,
        "Eccentricity": 0.0,
        "Inclination(deg)": 45.0,
        "Latitude(deg)": -38.028251396946494,
        "Longitude(deg)": -94.6772990144354,
        "Mean Anomaly(deg)": -119.80079133426841,
        "RAAN(deg)": 134.98964418270077,
        "Satellite Name": "Constellation 1 608",
        "Satellite Number": 608,
        "Semi-Major Axis(m)": 7083131.272910544,
        "Time(s)": 183
    },
    {
        "Altitude(m)": 714950.4585993148,
        "Argument of Periapsis(deg)": 0.011030433149154634,
        "Eccentricity": 0.0,
        "Inclination(deg)": 45.0,
        "Latitude(deg)": -38.05522480148813,
        "Longitude(deg)": -94.6126507890213,
        "Mean Anomaly(deg)": -119.74009019401858,
        "RAAN(deg)": 134.98958759353522,
        "Satellite Name": "Constellation 1 608",
        "Satellite Number": 608,
        "Semi-Major Axis(m)": 7083131.272910544,
        "Time(s)": 184
    },
    {
        "Altitude(m)": 714961.5514798412,
        "Argument of Periapsis(deg)": 0.01109038115540004,
        "Eccentricity": 0.0,
        "Inclination(deg)": 45.0,
        "Latitude(deg)": -38.08215780606934,
        "Longitude(deg)": -94.5479524256574,
        "Mean Anomaly(deg)": -119.67938905376862,
        "RAAN(deg)": 134.98953100436967,
        "Satellite Name": "Constellation 1 608",
        "Satellite Number": 608,
        "Semi-Major Axis(m)": 7083131.272910544,
        "Time(s)": 185
    },
    {
        "Altitude(m)": 714972.6286617685,
        "Argument of Periapsis(deg)": 0.011150329161645444,
        "Eccentricity": 0.0,
        "Inclination(deg)": 45.0,
        "Latitude(deg)": -38.10905034308015,
        "Longitude(deg)": -94.48320357788212,
        "Mean Anomaly(deg)": -119.61868791351876,
        "RAAN(deg)": 134.98947441520406,
        "Satellite Name": "Constellation 1 608",
        "Satellite Number": 608,
        "Semi-Major Axis(m)": 7083131.272910544,
        "Time(s)": 186
    },
    {
        "Altitude(m)": 714983.6901048933,
        "Argument of Periapsis(deg)": 0.01121027716789085,
        "Eccentricity": 0.0,
        "Inclination(deg)": 45.0,
        "Latitude(deg)": -38.13590234487872,
        "Longitude(deg)": -94.41840440386805,
        "Mean Anomaly(deg)": -119.55798677326885,
        "RAAN(deg)": 134.9894178260385,
        "Satellite Name": "Constellation 1 608",
        "Satellite Number": 608,
        "Semi-Major Axis(m)": 7083131.272910544,
        "Time(s)": 187
    },
    {
        "Altitude(m)": 714994.7357690742,
        "Argument of Periapsis(deg)": 0.011270225174136258,
        "Eccentricity": 0.0,
        "Inclination(deg)": 45.0,
        "Latitude(deg)": -38.162713743791585,
        "Longitude(deg)": -94.35355489403473,
        "Mean Anomaly(deg)": -119.49728563301893,
        "RAAN(deg)": 134.98936123687292,
        "Satellite Name": "Constellation 1 608",
        "Satellite Number": 608,
        "Semi-Major Axis(m)": 7083131.272910544,
        "Time(s)": 188
    },
    {
        "Altitude(m)": 715005.7656142036,
        "Argument of Periapsis(deg)": 0.011330173180381662,
        "Eccentricity": 0.0,
        "Inclination(deg)": 45.0,
        "Latitude(deg)": -38.189484472114316,
        "Longitude(deg)": -94.2886550391473,
        "Mean Anomaly(deg)": -119.43658449276906,
        "RAAN(deg)": 134.98930464770737,
        "Satellite Name": "Constellation 1 608",
        "Satellite Number": 608,
        "Semi-Major Axis(m)": 7083131.272910544,
        "Time(s)": 189
    }
]